[{"OBJECT_NAME":"STARLINK-30502","OBJECT_ID":"2023-151K","EPOCH":"2026-03-09T01:50:18.055968","MEAN_MOTION":15.27576128,"ECCENTRICITY":0.00019247,"INCLINATION":43.0036,"RA_OF_ASC_NODE":339.3691,"ARG_OF_PERICENTER":254.6619,"MEAN_ANOMALY":105.402,"EPHEMERIS_TYPE":0,"CLASSIFICATION_TYPE":"U","NORAD_CAT_ID":57973,"ELEMENT_SET_NO":999,"REV_AT_EPOCH":13567,"BSTAR":-0.00011181,"MEAN_MOTION_DOT":-3.338e-5,"MEAN_MOTION_DDOT":0},{"OBJECT_NAME":"VSP RF C1","OBJECT_ID":"2024-043AQ","EPOCH":"2026-03-09T21:56:05.358624","MEAN_MOTION":15.29409663,"ECCENTRICITY":0.00093965,"INCLINATION":97.5441,"RA_OF_ASC_NODE":205.1792,"ARG_OF_PERICENTER":219.6172,"MEAN_ANOMALY":140.4382,"EPHEMERIS_TYPE":0,"CLASSIFICATION_TYPE":"U","NORAD_CAT_ID":59136,"ELEMENT_SET_NO":999,"REV_AT_EPOCH":11190,"BSTAR":0.00026222052,"MEAN_MOTION_DOT":7.409e-5,"MEAN_MOTION_DDOT":0}]
